
    {
        "ARG_OF_PERICENTER": 300.5126,
        "BSTAR": 0.00054101,
        "CLASSIFICATION_TYPE": "U",
        "ECCENTRICITY": 0.0003316,
        "ELEMENT_SET_NO": 999,
        "EPHEMERIS_TYPE": 0,
        "EPOCH": "2026-03-28T22:46:27.278112",
        "INCLINATION": 97.8751,
        "MEAN_ANOMALY": 59.5787,
        "MEAN_MOTION": 15.32635068,
        "MEAN_MOTION_DDOT": 0,
        "MEAN_MOTION_DOT": 0.00016986,
        "NORAD_CAT_ID": 46506,
        "OBJECT_ID": "2020-068W",
        "OBJECT_NAME": "NETSAT-1",
        "RA_OF_ASC_NODE": 83.4654,
        "REV_AT_EPOCH": 30300
    },
    {
        "ARG_OF_PERICENTER": 278.5634,
        "BSTAR": 0.00072368,
        "CLASSIFICATION_TYPE": "U",
        "ECCENTRICITY": 0.0001747,
        "ELEMENT_SET_NO": 999,
        "EPHEMERIS_TYPE": 0,
        "EPOCH": "2026-03-29T23:37:38.954496",
        "INCLINATION": 97.8649,
        "MEAN_ANOMALY": 81.5414,
        "MEAN_MOTION": 15.42589862,
        "MEAN_MOTION_DDOT": 0,
        "MEAN_MOTION_DOT": 0.00031454,
        "NORAD_CAT_ID": 46507,
        "OBJECT_ID": "2020-068X",
        "OBJECT_NAME": "NETSAT-2",
        "RA_OF_ASC_NODE": 90.6713,
        "REV_AT_EPOCH": 30351
    },
    {
        "ARG_OF_PERICENTER": 307.1724,
        "BSTAR": 0,
        "CLASSIFICATION_TYPE": "U",
        "ECCENTRICITY": 0.0009006,
        "ELEMENT_SET_NO": 999,
        "EPHEMERIS_TYPE": 0,
        "EPOCH": "2026-03-29T00:45:25.599456",
        "INCLINATION": 70.1557,
        "MEAN_ANOMALY": 52.8113,
        "MEAN_MOTION": 6.42583202,
        "MEAN_MOTION_DDOT": 0,
        "MEAN_MOTION_DOT": -3e-08,
        "NORAD_CAT_ID": 53109,
        "OBJECT_ID": "2022-080E",
        "OBJECT_NAME": "GREENCUBE (IO-117)",
        "RA_OF_ASC_NODE": 326.1322,
        "REV_AT_EPOCH": 8691
    },
    {
        "ARG_OF_PERICENTER": 29.303,
        "BSTAR": 0.00065344,
        "CLASSIFICATION_TYPE": "U",
        "ECCENTRICITY": 0.001206,
        "ELEMENT_SET_NO": 999,
        "EPHEMERIS_TYPE": 0,
        "EPOCH": "2026-03-30T04:28:12.393984",
        "INCLINATION": 97.5144,
        "MEAN_ANOMALY": 330.8883,
        "MEAN_MOTION": 15.27633381,
        "MEAN_MOTION_DDOT": 0,
        "MEAN_MOTION_DOT": 0.00017636,
        "NORAD_CAT_ID": 57176,
        "OBJECT_ID": "2023-091L",
        "OBJECT_NAME": "SITRO-AIS 5 (KATYS)",
        "RA_OF_ASC_NODE": 152.4142,
        "REV_AT_EPOCH": 15227
    },
    {
        "ARG_OF_PERICENTER": 31.9699,
        "BSTAR": 0.00038075,
        "CLASSIFICATION_TYPE": "U",
        "ECCENTRICITY": 0.0012938,
        "ELEMENT_SET_NO": 999,
        "EPHEMERIS_TYPE": 0,
        "EPOCH": "2026-03-30T04:36:21.181248",
        "INCLINATION": 97.515,
        "MEAN_ANOMALY": 328.2321,
        "MEAN_MOTION": 15.24720304,
        "MEAN_MOTION_DDOT": 0,
        "MEAN_MOTION_DOT": 9.374e-05,
        "NORAD_CAT_ID": 57192,
        "OBJECT_ID": "2023-091AC",
        "OBJECT_NAME": "SITRO-AIS 6 (CHIRKIN)",
        "RA_OF_ASC_NODE": 151.9296,
        "REV_AT_EPOCH": 15224
    },
    {
        "ARG_OF_PERICENTER": 26.7932,
        "BSTAR": 0.000758,
        "CLASSIFICATION_TYPE": "U",
        "ECCENTRICITY": 0.0011077,
        "ELEMENT_SET_NO": 999,
        "EPHEMERIS_TYPE": 0,
        "EPOCH": "2026-03-30T03:17:39.665760",
        "INCLINATION": 97.5135,
        "MEAN_ANOMALY": 333.3878,
        "MEAN_MOTION": 15.30003142,
        "MEAN_MOTION_DDOT": 0,
        "MEAN_MOTION_DOT": 0.00022016,
        "NORAD_CAT_ID": 57193,
        "OBJECT_ID": "2023-091AD",
        "OBJECT_NAME": "SITRO-AIS 8 (ANOKHIN)",
        "RA_OF_ASC_NODE": 153.6527,
        "REV_AT_EPOCH": 15235
    },
    {
        "ARG_OF_PERICENTER": 32.8955,
        "BSTAR": 0.00038876,
        "CLASSIFICATION_TYPE": "U",
        "ECCENTRICITY": 0.0012863,
        "ELEMENT_SET_NO": 999,
        "EPHEMERIS_TYPE": 0,
        "EPOCH": "2026-03-30T04:19:07.813056",
        "INCLINATION": 97.5148,
        "MEAN_ANOMALY": 327.308,
        "MEAN_MOTION": 15.24451023,
        "MEAN_MOTION_DDOT": 0,
        "MEAN_MOTION_DOT": 9.495e-05,
        "NORAD_CAT_ID": 57194,
        "OBJECT_ID": "2023-091AE",
        "OBJECT_NAME": "SITRO-AIS 7 (FARTUSHNIY)",
        "RA_OF_ASC_NODE": 151.7802,
        "REV_AT_EPOCH": 15223
    },
    {
        "ARG_OF_PERICENTER": 7.9573,
        "BSTAR": 0.00077164,
        "CLASSIFICATION_TYPE": "U",
        "ECCENTRICITY": 0.000647,
        "ELEMENT_SET_NO": 999,
        "EPHEMERIS_TYPE": 0,
        "EPOCH": "2026-03-30T03:42:07.869600",
        "INCLINATION": 97.5151,
        "MEAN_ANOMALY": 352.1772,
        "MEAN_MOTION": 15.35631197,
        "MEAN_MOTION_DDOT": 0,
        "MEAN_MOTION_DOT": 0.00026727,
        "NORAD_CAT_ID": 57199,
        "OBJECT_ID": "2023-091AK",
        "OBJECT_NAME": "SITRO-AIS 10 (BURDAEV)",
        "RA_OF_ASC_NODE": 157.9654,
        "REV_AT_EPOCH": 15262
    },
    {
        "ARG_OF_PERICENTER": 7.5149,
        "BSTAR": 0.00075448,
        "CLASSIFICATION_TYPE": "U",
        "ECCENTRICITY": 0.0006712,
        "ELEMENT_SET_NO": 999,
        "EPHEMERIS_TYPE": 0,
        "EPOCH": "2026-03-30T03:46:58.421568",
        "INCLINATION": 97.5148,
        "MEAN_ANOMALY": 352.6193,
        "MEAN_MOTION": 15.35233921,
        "MEAN_MOTION_DDOT": 0,
        "MEAN_MOTION_DOT": 0.000258,
        "NORAD_CAT_ID": 57201,
        "OBJECT_ID": "2023-091AM",
        "OBJECT_NAME": "SITRO-AIS 9 (SHCHUKIN)",
        "RA_OF_ASC_NODE": 157.7554,
        "REV_AT_EPOCH": 15261
    },
    {
        "ARG_OF_PERICENTER": 1.4159,
        "BSTAR": 0.00074823,
        "CLASSIFICATION_TYPE": "U",
        "ECCENTRICITY": 0.0006188,
        "ELEMENT_SET_NO": 999,
        "EPHEMERIS_TYPE": 0,
        "EPOCH": "2026-03-30T03:54:08.347968",
        "INCLINATION": 97.5161,
        "MEAN_ANOMALY": 358.7101,
        "MEAN_MOTION": 15.35488108,
        "MEAN_MOTION_DDOT": 0,
        "MEAN_MOTION_DOT": 0.00025791,
        "NORAD_CAT_ID": 57204,
        "OBJECT_ID": "2023-091AQ",
        "OBJECT_NAME": "SITRO-AIS 12 (SMIRENNIY)",
        "RA_OF_ASC_NODE": 158.1805,
        "REV_AT_EPOCH": 15263
    },
    {
        "ARG_OF_PERICENTER": 1.632,
        "BSTAR": 0.00076578,
        "CLASSIFICATION_TYPE": "U",
        "ECCENTRICITY": 0.0006113,
        "ELEMENT_SET_NO": 999,
        "EPHEMERIS_TYPE": 0,
        "EPOCH": "2026-03-30T04:42:33.802848",
        "INCLINATION": 97.5159,
        "MEAN_ANOMALY": 358.4942,
        "MEAN_MOTION": 15.35857116,
        "MEAN_MOTION_DDOT": 0,
        "MEAN_MOTION_DOT": 0.00026714,
        "NORAD_CAT_ID": 57208,
        "OBJECT_ID": "2023-091AU",
        "OBJECT_NAME": "SITRO-AIS 11 (SHEFFER)",
        "RA_OF_ASC_NODE": 158.4155,
        "REV_AT_EPOCH": 15265
    },
    {
        "ARG_OF_PERICENTER": 243.6665,
        "BSTAR": 0.00050715,
        "CLASSIFICATION_TYPE": "U",
        "ECCENTRICITY": 0.0144737,
        "ELEMENT_SET_NO": 999,
        "EPHEMERIS_TYPE": 0,
        "EPOCH": "2026-03-30T05:35:12.043392",
        "INCLINATION": 95.393,
        "MEAN_ANOMALY": 114.9635,
        "MEAN_MOTION": 14.92814681,
        "MEAN_MOTION_DDOT": 0,
        "MEAN_MOTION_DOT": 6.405e-05,
        "NORAD_CAT_ID": 59066,
        "OBJECT_ID": "2024-039R",
        "OBJECT_NAME": "SITRO-AIS 25",
        "RA_OF_ASC_NODE": 180.8559,
        "REV_AT_EPOCH": 11294
    }