NETSAT-1                
1 46506U 20068W   26087.94892683  .00016986  00000+0  54101-3 0  9992
2 46506  97.8751  83.4654 0003316 300.5126  59.5787 15.32635068303006
NETSAT-2                
1 46507U 20068X   26088.98447864  .00031454  00000+0  72368-3 0  9997
2 46507  97.8649  90.6713 0001747 278.5634  81.5414 15.42589862303512
GREENCUBE (IO-117)      
1 53109U 22080E   26088.03154629 -.00000003  00000+0  00000+0 0  9996
2 53109  70.1557 326.1322 0009006 307.1724  52.8113  6.42583202 86919
SITRO-AIS 5 (KATYS)     
1 57176U 23091L   26089.18625456  .00017636  00000+0  65344-3 0  9990
2 57176  97.5144 152.4142 0012060  29.3030 330.8883 15.27633381152272
SITRO-AIS 6 (CHIRKIN)   
1 57192U 23091AC  26089.19191182  .00009374  00000+0  38075-3 0  9994
2 57192  97.5150 151.9296 0012938  31.9699 328.2321 15.24720304152249
SITRO-AIS 8 (ANOKHIN)   
1 57193U 23091AD  26089.13726465  .00022016  00000+0  75800-3 0  9992
2 57193  97.5135 153.6527 0011077  26.7932 333.3878 15.30003142152351
SITRO-AIS 7 (FARTUSHNIY)
1 57194U 23091AE  26089.17995154  .00009495  00000+0  38876-3 0  9998
2 57194  97.5148 151.7802 0012863  32.8955 327.3080 15.24451023152231
SITRO-AIS 10 (BURDAEV)  
1 57199U 23091AK  26089.15425775  .00026727  00000+0  77164-3 0  9998
2 57199  97.5151 157.9654 0006470   7.9573 352.1772 15.35631197152620
SITRO-AIS 9 (SHCHUKIN)  
1 57201U 23091AM  26089.15762062  .00025800  00000+0  75448-3 0  9999
2 57201  97.5148 157.7554 0006712   7.5149 352.6193 15.35233921152615
SITRO-AIS 12 (SMIRENNIY)
1 57204U 23091AQ  26089.16259662  .00025791  00000+0  74823-3 0  9995
2 57204  97.5161 158.1805 0006188   1.4159 358.7101 15.35488108152635
SITRO-AIS 11 (SHEFFER)  
1 57208U 23091AU  26089.19622457  .00026714  00000+0  76578-3 0  9993
2 57208  97.5159 158.4155 0006113   1.6320 358.4942 15.35857116152658
SITRO-AIS 25            
1 59066U 24039R   26089.23277828  .00006405  00000+0  50715-3 0  9993
2 59066  95.3930 180.8559 0144737 243.6665 114.9635 14.92814681112941
